ONEWEB-0403             
1 50483U 21132Q   25283.33217802  .00000110  00000+0  24679-3 0  9997
2 50483  87.9231  25.0670 0001845  96.3548 263.7794 13.18687943188662
ONEWEB-0404             
1 50484U 21132R   25283.84106446 -.00000022  00000+0 -97868-4 0  9990
2 50484  87.8806  70.7327 0001746  80.4668 279.6658 13.11417663183015
ONEWEB-0405             
1 50485U 21132S   25283.57466229  .00000139  00000+0  31924-3 0  9996
2 50485  87.9226  25.0034 0001519 100.8186 259.3118 13.18688030189096
ONEWEB-0406             
1 50486U 21132T   25283.33713727  .00000011  00000+0 -44940-5 0  9993
2 50486  87.9229  25.0747 0002234  90.9639 269.1749 13.18683418188697
ONEWEB-0407             
1 50487U 21132U   25283.33052628  .00000102  00000+0  22678-3 0  9992
2 50487  87.9229  25.0608 0001718 104.1531 255.9792 13.18688595188635
ONEWEB-0409             
1 50488U 21132V   25283.83937023 -.00000082  00000+0 -26726-3 0  9996
2 50488  87.8824  70.6947 0001893  88.1106 272.0239 13.11416974182904
ONEWEB-0412             
1 50489U 21132W   25283.31899626  .00000055  00000+0  10666-3 0  9990
2 50489  87.9226  25.0749 0001483 103.7892 256.3406 13.18687015188727
ONEWEB-0413             
1 50490U 21132X   25283.32394325  .00000087  00000+0  18865-3 0  9993
2 50490  87.9226  25.0914 0001516 109.6331 250.4965 13.18687461188666
